{
  "type": "FeatureCollection",
  "name": "redline_candidate_1306",
  "features": [
    {
      "type": "Feature",
      "properties": {
        "project": "26-BQ-PARK",
        "source_dxf": "projects/26-BQ-PARK/05_output/cad/02_site/地形图/口袋公园.dxf",
        "handle": "1306",
        "layer": "0",
        "area_xy": 15052.5751953125,
        "unit_note": "DXF INSUNITS=0; coordinates are CAD/projected coordinates, not WGS84.",
        "confidence": "candidate_needs_cad_review"
      },
      "geometry": {
        "type": "Polygon",
        "coordinates": [
          [
            [
              597564.8990524666,
              3534324.358062894
            ],
            [
              597566.2607273574,
              3534327.001165579
            ],
            [
              597565.6061153228,
              3534326.917862529
            ],
            [
              597569.2999444514,
              3534334.993609251
            ],
            [
              597568.3588268001,
              3534337.951853663
            ],
            [
              597566.2951684847,
              3534339.885434887
            ],
            [
              597528.2404714092,
              3534359.598396885
            ],
            [
              597505.0963695849,
              3534368.015247252
            ],
            [
              597504.7588755861,
              3534367.782273283
            ],
            [
              597497.527539761,
              3534370.659750258
            ],
            [
              597496.8955774541,
              3534370.22282841
            ],
            [
              597488.9015585305,
              3534361.164648751
            ],
            [
              597484.8075633801,
              3534358.087734047
            ],
            [
              597445.1618517219,
              3534342.753105786
            ],
            [
              597439.3567872602,
              3534339.009864514
            ],
            [
              597410.2392515346,
              3534301.646080967
            ],
            [
              597408.2011118163,
              3534296.981684564
            ],
            [
              597408.7779552261,
              3534292.936492884
            ],
            [
              597408.8112317175,
              3534292.703137032
            ],
            [
              597411.957831342,
              3534290.040320148
            ],
            [
              597481.5377904391,
              3534266.980538469
            ],
            [
              597485.1060293725,
              3534266.765670069
            ],
            [
              597485.6431031098,
              3534267.053510857
            ],
            [
              597543.8784022073,
              3534245.569733656
            ],
            [
              597555.6065518672,
              3534242.548595023
            ],
            [
              597569.4875851987,
              3534240.603434482
            ],
            [
              597579.4340701554,
              3534242.712629138
            ],
            [
              597583.9304458909,
              3534242.154909341
            ],
            [
              597602.4128721136,
              3534303.418909435
            ],
            [
              597564.8990524666,
              3534324.358062894
            ]
          ]
        ]
      }
    }
  ]
}